ONEWEB-0128             
1 47274U 20100S   25298.22049386 -.00000192  00000+0 -56900-3 0  9993
2 47274  87.8967  37.3794 0001879 108.4382 251.6951 13.12440987233922
ONEWEB-0129             
1 47275U 20100T   25298.19942060  .00000413  00000+0  11126-2 0  9995
2 47275  87.8972  37.3316 0002836  90.7064 269.4389 13.12441421233851
ONEWEB-0130             
1 47276U 20100U   25298.22698244 -.00000285  00000+0 -82842-3 0  9995
2 47276  87.8971  37.3220 0001799 104.1798 255.9531 13.12443781233823
ONEWEB-0131             
1 47277U 20100V   25298.22374259 -.00000281  00000+0 -81576-3 0  9992
2 47277  87.8970  37.3529 0001765 104.3849 255.7475 13.12443429233865
ONEWEB-0132             
1 47278U 20100W   25298.25293523  .00000248  00000+0  65533-3 0  9996
2 47278  87.8969  37.3487 0001743 102.9661 257.1663 13.12446295233767
ONEWEB-0133             
1 47279U 20100X   25298.26902809  .00000541  00000+0  14673-2 0  9996
2 47279  87.8961  37.3106 0001756 107.3247 252.8074 13.12444348233924
ONEWEB-0134             
1 47280U 20100Y   25298.31457343 -.00000315  00000+0 -91076-3 0  9996
2 47280  87.8969  37.2931 0001950 106.0801 254.0543 13.12444938233905
ONEWEB-0135             
1 47281U 20100Z   25298.28538274  .00000180  00000+0  46487-3 0  9990
2 47281  87.8975  37.3397 0002016 112.4084 247.7258 13.12443571233924
